NORAD_CAT_ID,OBJECT_NAME,OBJECT_TYPE,EPOCH,MEAN_MOTION,ECCENTRICITY,INCLINATION,RA_OF_ASC_NODE,ARG_OF_PERICENTER,MEAN_ANOMALY,BSTAR,MEAN_MOTION_DOT,MEAN_MOTION_DDOT,TLE_LINE0,TLE_LINE1,TLE_LINE2,SEMIMAJOR_AXIS,PERIOD,APOGEE,PERIGEE,DECAYED
55917.0,STARLINK-5855,PAYLOAD,2023-09-30 17:13:10,15.00292369,0.0001561,70.0026,30.6851,265.6469,94.4513,0.0017456,0.00021891,0.0,0 STARLINK-5855,1 55917U 23037D   23273.71748571  .00021891  00000-0  17456-2 0  9995,2 55917  70.0026  30.6851 0001561 265.6469  94.4513 15.00292369 30374,6944.131,95.981,567.08,564.912,0.0
55917.0,STARLINK-5855,PAYLOAD,2023-10-01 12:25:15,15.00340834,0.0001619,70.0025,28.6617,267.1479,92.9495,0.0020478,0.00025743,0.0,0 STARLINK-5855,1 55917U 23037D   23274.51754283  .00025743  00000-0  20478-2 0  9999,2 55917  70.0025  28.6617 0001619 267.1479  92.9495 15.00340834 30498,6943.981,95.978,566.971,564.722,0.0
55917.0,STARLINK-5855,PAYLOAD,2023-10-01 14:01:16,15.00345316,0.0001642,70.0024,28.4928,267.5588,92.5384,0.0021173,0.00026627,0.0,0 STARLINK-5855,1 55917U 23037D   23274.58421301  .00026627  00000-0  21173-2 0  9993,2 55917  70.0024  28.4928 0001642 267.5588  92.5384 15.00345316 30168,6943.968,95.978,566.973,564.692,0.0
55917.0,STARLINK-5855,PAYLOAD,2023-10-01 17:13:16,15.00350855,0.0001645,70.0025,28.1558,268.8881,91.2091,0.001992,0.00025043,0.0,0 STARLINK-5855,1 55917U 23037D   23274.71755366  .00025043  00000-0  19920-2 0  9997,2 55917  70.0025  28.1558 0001645 268.8881  91.2091 15.00350855 30185,6943.951,95.978,566.958,564.673,0.0
55917.0,STARLINK-5855,PAYLOAD,2023-10-02 15:37:19,15.00402488,0.0001715,70.0023,25.7948,272.1797,87.9166,0.0020915,0.0002634,0.0,0 STARLINK-5855,1 55917U 23037D   23275.65091750  .00026340  00000-0  20915-2 0  9998,2 55917  70.0023  25.7948 0001715 272.1797  87.9166 15.00402488 30669,6943.791,95.974,566.847,564.465,0.0
55917.0,STARLINK-5855,PAYLOAD,2023-10-03 14:01:19,15.00453949,0.0001775,70.0021,23.4341,275.806,84.2898,0.0020848,0.0002629,0.0,0 STARLINK-5855,1 55917U 23037D   23276.58424924  .00026290  00000-0  20848-2 0  9993,2 55917  70.0021  23.4341 0001775 275.8060  84.2898 15.00453949 30466,6943.633,95.971,566.73,564.265,0.0
55917.0,STARLINK-5855,PAYLOAD,2023-10-03 17:13:18,15.00460875,0.0001783,70.0021,23.0968,277.0164,83.0793,0.0020901,0.00026362,0.0,0 STARLINK-5855,1 55917U 23037D   23276.71758001  .00026362  00000-0  20901-2 0  9994,2 55917  70.0021  23.0968 0001783 277.0164  83.0793 15.00460875 30822,6943.611,95.971,566.714,564.238,0.0
55917.0,STARLINK-5855,PAYLOAD,2023-10-04 14:01:15,15.0051853,0.0001796,70.0021,20.9046,281.107,78.9888,0.002527,0.00031967,0.0,0 STARLINK-5855,1 55917U 23037D   23277.58420992  .00031967  00000-0  25270-2 0  9996,2 55917  70.0021  20.9046 0001796 281.1070  78.9888 15.00518530 30618,6943.433,95.967,566.545,564.051,0.0
55917.0,STARLINK-5855,PAYLOAD,2023-10-04 17:13:15,15.005259,0.0001816,70.002,20.5674,282.1521,77.9435,0.0024715,0.00031265,0.0,0 STARLINK-5855,1 55917U 23037D   23277.71753512  .00031265  00000-0  24715-2 0  9992,2 55917  70.0020  20.5674 0001816 282.1521  77.9435 15.00525900 30970,6943.411,95.966,566.536,564.015,0.0
55917.0,STARLINK-5855,PAYLOAD,2023-10-05 14:01:08,15.00587239,0.0001866,70.0019,18.3753,283.6399,76.4553,0.0026855,0.00034049,0.0,0 STARLINK-5855,1 55917U 23037D   23278.58412612  .00034049  00000-0  26855-2 0  9991,2 55917  70.0019  18.3753 0001866 283.6399  76.4553 15.00587239 30760,6943.221,95.962,566.382,563.791,0.0
55917.0,STARLINK-5855,PAYLOAD,2023-10-05 17:13:07,15.00596669,0.0001864,70.0018,18.0379,284.4,75.6954,0.0027186,0.0003448,0.0,0 STARLINK-5855,1 55917U 23037D   23278.71744495  .00034480  00000-0  27186-2 0  9990,2 55917  70.0018  18.0379 0001864 284.4000  75.6954 15.00596669 31120,6943.192,95.962,566.351,563.763,0.0
55917.0,STARLINK-5855,PAYLOAD,2023-10-06 14:00:57,15.00650656,0.0001884,70.0018,15.8453,285.9611,74.1342,0.0024357,0.0003091,0.0,0 STARLINK-5855,1 55917U 23037D   23279.58399780  .00030910  00000-0  24357-2 0  9990,2 55917  70.0018  15.8453 0001884 285.9611  74.1342 15.00650656 30912,6943.026,95.958,566.199,563.583,0.0
55917.0,STARLINK-5855,PAYLOAD,2023-10-06 15:36:56,15.00654006,0.0001886,70.0018,15.6766,285.7793,74.3159,0.0023975,0.00030425,0.0,0 STARLINK-5855,1 55917U 23037D   23279.65065464  .00030425  00000-0  23975-2 0  9993,2 55917  70.0018  15.6766 0001886 285.7793  74.3159 15.00654006 30920,6943.015,95.958,566.19,563.571,0.0
55917.0,STARLINK-5855,PAYLOAD,2023-10-06 23:36:52,15.00676186,0.0001896,70.0018,14.8332,287.1694,72.9258,0.0025431,0.00032306,0.0,0 STARLINK-5855,1 55917U 23037D   23279.98393523  .00032306  00000-0  25431-2 0  9998,2 55917  70.0018  14.8332 0001896 287.1694  72.9258 15.00676186 31318,6942.947,95.957,566.128,563.496,0.0
55917.0,STARLINK-5855,PAYLOAD,2023-10-07 14:00:42,15.00710754,0.0001963,70.0018,13.3148,288.4798,71.6148,0.0022104,0.00028075,0.0,0 STARLINK-5855,1 55917U 23037D   23280.58382817  .00028075  00000-0  22104-2 0  9992,2 55917  70.0018  13.3148 0001963 288.4798  71.6148 15.00710754 31067,6942.84,95.955,566.068,563.342,0.0
55917.0,STARLINK-5855,PAYLOAD,2023-10-07 15:36:41,15.00716166,0.0001956,70.0019,13.1462,288.8013,71.2935,0.0022968,0.00029185,0.0,0 STARLINK-5855,1 55917U 23037D   23280.65048191  .00029185  00000-0  22968-2 0  9995,2 55917  70.0019  13.1462 0001956 288.8013  71.2935 15.00716166 31075,6942.824,95.954,566.047,563.331,0.0
55917.0,STARLINK-5855,PAYLOAD,2023-10-08 10:48:26,15.00775615,0.0002039,70.002,11.1216,289.9647,70.1293,0.0026178,0.00033349,0.0,0 STARLINK-5855,1 55917U 23037D   23281.45031033  .00033349  00000-0  26178-2 0  9995,2 55917  70.0020  11.1216 0002039 289.9647  70.1293 15.00775615 31530,6942.64,95.95,565.921,563.09,0.0
55917.0,STARLINK-5855,PAYLOAD,2023-10-08 14:00:24,15.00783628,0.0002107,70.0021,10.7844,289.2054,70.8879,0.0026488,0.00033754,0.0,0 STARLINK-5855,1 55917U 23037D   23281.58361264  .00033754  00000-0  26488-2 0  9995,2 55917  70.0021  10.7844 0002107 289.2054  70.8879 15.00783628 31219,6942.616,95.95,565.943,563.018,0.0
55917.0,STARLINK-5855,PAYLOAD,2023-10-08 15:36:22,15.00786175,0.0002079,70.0021,10.6155,289.7674,70.3262,0.0024986,0.00031828,0.0,0 STARLINK-5855,1 55917U 23037D   23281.65026373  .00031828  00000-0  24986-2 0  9993,2 55917  70.0021  10.6155 0002079 289.7674  70.3262 15.00786175 31226,6942.608,95.95,565.916,563.029,0.0
55917.0,STARLINK-5855,PAYLOAD,2023-10-09 14:00:01,15.00844398,0.000218,70.0023,8.2538,290.9205,69.1722,0.0023088,0.00029438,0.0,0 STARLINK-5855,1 55917U 23037D   23282.58335478  .00029438  00000-0  23088-2 0  9991,2 55917  70.0023   8.2538 0002180 290.9205  69.1722 15.00844398 31367,6942.428,95.946,565.807,562.78,0.0
55917.0,STARLINK-5855,PAYLOAD,2023-10-09 15:36:00,15.00848977,0.0002189,70.0024,8.0851,291.2296,68.863,0.0023534,0.00030015,0.0,0 STARLINK-5855,1 55917U 23037D   23282.65000280  .00030015  00000-0  23534-2 0  9998,2 55917  70.0024   8.0851 0002189 291.2296  68.8630 15.00848977 31717,6942.414,95.946,565.799,562.759,0.0
55917.0,STARLINK-5855,PAYLOAD,2023-10-10 10:47:39,15.00908213,0.0002247,70.0025,6.0606,292.9046,67.1877,0.0024903,0.00031824,0.0,0 STARLINK-5855,1 55917U 23037D   23283.44976003  .00031824  00000-0  24903-2 0  9991,2 55917  70.0025   6.0606 0002247 292.9046  67.1877 15.00908213 31838,6942.231,95.942,565.656,562.536,0.0
55917.0,STARLINK-5855,PAYLOAD,2023-10-10 13:59:35,15.00916825,0.000228,70.0025,5.7232,292.543,67.5489,0.0024645,0.00031499,0.0,0 STARLINK-5855,1 55917U 23037D   23283.58305018  .00031499  00000-0  24645-2 0  9999,2 55917  70.0025   5.7232 0002280 292.5430  67.5489 15.00916825 31515,6942.205,95.941,565.653,562.487,0.0
55917.0,STARLINK-5855,PAYLOAD,2023-10-10 15:35:33,15.00920314,0.0002291,70.0025,5.5544,292.6362,67.4556,0.0024049,0.00030735,0.0,0 STARLINK-5855,1 55917U 23037D   23283.64969517  .00030735  00000-0  24049-2 0  9996,2 55917  70.0025   5.5544 0002291 292.6362  67.4556 15.00920314 31529,6942.194,95.941,565.65,562.469,0.0
55917.0,STARLINK-5855,PAYLOAD,2023-10-11 13:59:05,15.00976362,0.000238,70.0025,3.1929,294.9303,65.161,0.0021704,0.00027758,0.0,0 STARLINK-5855,1 55917U 23037D   23284.58270328  .00027758  00000-0  21704-2 0  9991,2 55917  70.0025   3.1929 0002380 294.9303  65.1610 15.00976362 31664,6942.021,95.938,565.538,562.234,0.0
55917.0,STARLINK-5855,PAYLOAD,2023-10-11 15:35:03,15.00980184,0.0002394,70.0025,3.0241,295.1858,64.9054,0.0021813,0.00027901,0.0,0 STARLINK-5855,1 55917U 23037D   23284.64934554  .00027901  00000-0  21813-2 0  9997,2 55917  70.0025   3.0241 0002394 295.1858  64.9054 15.00980184 32019,6942.009,95.937,565.536,562.213,0.0
55917.0,STARLINK-5855,PAYLOAD,2023-10-12 12:22:34,15.01029831,0.0002436,70.0025,0.8307,299.7215,60.3703,0.0021795,0.00027914,0.0,0 STARLINK-5855,1 55917U 23037D   23285.51567829  .00027914  00000-0  21795-2 0  9994,2 55917  70.0025   0.8307 0002436 299.7215  60.3703 15.01029831 31802,6941.856,95.934,565.412,562.03,0.0
55917.0,STARLINK-5855,PAYLOAD,2023-10-12 15:34:29,15.01037209,0.0002473,70.0023,0.493,300.7078,59.3839,0.0022164,0.00028396,0.0,0 STARLINK-5855,1 55917U 23037D   23285.64895803  .00028396  00000-0  22164-2 0  9990,2 55917  70.0023   0.4930 0002473 300.7078  59.3839 15.01037209 31827,6941.834,95.934,565.415,561.982,0.0
55917.0,STARLINK-5855,PAYLOAD,2023-10-13 12:21:58,15.01087608,0.0002545,70.0023,358.2994,302.8888,57.2027,0.0024918,0.00031995,0.0,0 STARLINK-5855,1 55917U 23037D   23286.51525891  .00031995  00000-0  24918-2 0  9992,2 55917  70.0023 358.2994 0002545 302.8888  57.2027 15.01087608 32299,6941.678,95.93,565.31,561.777,0.0
55917.0,STARLINK-5855,PAYLOAD,2023-10-13 13:57:55,15.01091585,0.0002572,70.0022,358.1307,303.8947,56.1968,0.0025093,0.00032225,0.0,0 STARLINK-5855,1 55917U 23037D   23286.58189636  .00032225  00000-0  25093-2 0  9994,2 55917  70.0022 358.1307 0002572 303.8947  56.1968 15.01091585 31966,6941.666,95.93,565.316,561.746,0.0
